[
    {
        "CCSDS_OMM_VERS": "3.0",
        "COMMENT": "GENERATED VIA SPACE-TRACK.ORG API",
        "CREATION_DATE": "2025-05-04T02:26:54",
        "ORIGINATOR": "18 SPCS",
        "OBJECT_NAME": "BEIDOU 3 IGSO-2",
        "OBJECT_ID": "2019-035A",
        "CENTER_NAME": "EARTH",
        "REF_FRAME": "TEME",
        "TIME_SYSTEM": "UTC",
        "MEAN_ELEMENT_THEORY": "SGP4",
        "EPOCH": "2025-05-03T16:56:35.768256",
        "MEAN_MOTION": "1.00285044",
        "ECCENTRICITY": "0.00357550",
        "INCLINATION": "55.2015",
        "RA_OF_ASC_NODE": "162.4566",
        "ARG_OF_PERICENTER": "209.7332",
        "MEAN_ANOMALY": "223.0964",
        "EPHEMERIS_TYPE": "0",
        "CLASSIFICATION_TYPE": "U",
        "NORAD_CAT_ID": "44337",
        "ELEMENT_SET_NO": "999",
        "REV_AT_EPOCH": "2156",
        "BSTAR": "0.00000000000000",
        "MEAN_MOTION_DOT": "-0.00000105",
        "MEAN_MOTION_DDOT": "0.0000000000000",
        "SEMIMAJOR_AXIS": "42161.015",
        "PERIOD": "1435.907",
        "APOAPSIS": "35933.627",
        "PERIAPSIS": "35632.134",
        "OBJECT_TYPE": "PAYLOAD",
        "RCS_SIZE": "LARGE",
        "COUNTRY_CODE": "PRC",
        "LAUNCH_DATE": "2019-06-24",
        "SITE": "XSC",
        "DECAY_DATE": null,
        "FILE": "4718307",
        "GP_ID": "286800367",
        "TLE_LINE0": "0 BEIDOU 3 IGSO-2",
        "TLE_LINE1": "1 44337U 19035A   25123.70596954 -.00000105  00000-0  00000-0 0  9994",
        "TLE_LINE2": "2 44337  55.2015 162.4566 0035755 209.7332 223.0964  1.00285044 21566"
    }
]